{
  "type": "FeatureCollection",
  "features": [
    {
      "type": "Feature",
      "properties": {
        "norad_id": 66913,
        "name": "2025-284A",
        "group": "last-30-days",
        "lat": 74.80128634429822,
        "lon": 160.68178121281866,
        "alt_km": 506.0821483581831,
        "timestamp": "2025-12-18T17:50:13.701697+00:00",
        "meta_object_name": "2025-284A",
        "meta_object_id": "2025-284A",
        "meta_epoch": "2025-12-18T06:24:29.359008",
        "meta_mean_motion": 15.16462178,
        "meta_eccentricity": 0.00203688,
        "meta_inclination": 80.4052,
        "meta_ra_of_asc_node": 122.7714,
        "meta_arg_of_pericenter": 156.4299,
        "meta_mean_anomaly": 203.7866,
        "meta_ephemeris_type": 0,
        "meta_classification_type": "U",
        "meta_norad_cat_id": 66913,
        "meta_element_set_no": 999,
        "meta_rev_at_epoch": 196,
        "meta_bstar": 0.00046237905,
        "meta_mean_motion_dot": 9.066e-05,
        "meta_mean_motion_ddot": 0,
        "tle_line1": "1 66913U 25284A   25352.26700647  .00009066  00000+0  46238-3 0  9991",
        "tle_line2": "2 66913  80.4052 122.7714 0020368 156.4299 203.7866 15.16462178  1964"
      },
      "geometry": {
        "type": "Point",
        "coordinates": [
          160.68178121281866,
          74.80128634429822
        ]
      }
    },
    {
      "type": "Feature",
      "properties": {
        "norad_id": 66914,
        "name": "2025-284B",
        "group": "last-30-days",
        "lat": 66.5537422492594,
        "lon": -80.80305460264928,
        "alt_km": 504.67236532898005,
        "timestamp": "2025-12-18T17:50:13.701707+00:00",
        "meta_object_name": "2025-284B",
        "meta_object_id": "2025-284B",
        "meta_epoch": "2025-12-16T06:51:11.417184",
        "meta_mean_motion": 15.18985981,
        "meta_eccentricity": 0.00081793,
        "meta_inclination": 80.4045,
        "meta_ra_of_asc_node": 125.2713,
        "meta_arg_of_pericenter": 234.9626,
        "meta_mean_anomaly": 125.0834,
        "meta_ephemeris_type": 0,
        "meta_classification_type": "U",
        "meta_norad_cat_id": 66914,
        "meta_element_set_no": 999,
        "meta_rev_at_epoch": 166,
        "meta_bstar": 0.00038444995,
        "meta_mean_motion_dot": 8.068e-05,
        "meta_mean_motion_ddot": 0,
        "tle_line1": "1 66914U 25284B   25350.28554881  .00008068  00000+0  38445-3 0  9991",
        "tle_line2": "2 66914  80.4045 125.2713 0008179 234.9626 125.0834 15.18985981  1668"
      },
      "geometry": {
        "type": "Point",
        "coordinates": [
          -80.80305460264928,
          66.5537422492594
        ]
      }
    },
    {
      "type": "Feature",
      "properties": {
        "norad_id": 66915,
        "name": "HULIANWANG DIGUI-105",
        "group": "last-30-days",
        "lat": -38.51986628428792,
        "lon": 50.89637605719209,
        "alt_km": 879.1510145499669,
        "timestamp": "2025-12-18T17:50:13.701718+00:00",
        "meta_object_name": "HULIANWANG DIGUI-105",
        "meta_object_id": "2025-285A",
        "meta_epoch": "2025-12-18T07:50:36.663936",
        "meta_mean_motion": 14.03717261,
        "meta_eccentricity": 0.0008013,
        "meta_inclination": 50.0058,
        "meta_ra_of_asc_node": 94.5213,
        "meta_arg_of_pericenter": 301.3345,
        "meta_mean_anomaly": 58.6775,
        "meta_ephemeris_type": 0,
        "meta_classification_type": "U",
        "meta_norad_cat_id": 66915,
        "meta_element_set_no": 999,
        "meta_rev_at_epoch": 169,
        "meta_bstar": 8.5133539e-05,
        "meta_mean_motion_dot": -1.7e-07,
        "meta_mean_motion_ddot": 0,
        "tle_line1": "1 66915U 25285A   25352.32681324 -.00000017  00000+0  85134-4 0  9998",
        "tle_line2": "2 66915  50.0058  94.5213 0008013 301.3345  58.6775 14.03717261  1698"
      },
      "geometry": {
        "type": "Point",
        "coordinates": [
          50.89637605719209,
          -38.51986628428792
        ]
      }
    },
    {
      "type": "Feature",
      "properties": {
        "norad_id": 66916,
        "name": "HULIANWANG DIGUI-106",
        "group": "last-30-days",
        "lat": -29.23642053596289,
        "lon": 64.77420184435874,
        "alt_km": 879.9719153994283,
        "timestamp": "2025-12-18T17:50:13.701729+00:00",
        "meta_object_name": "HULIANWANG DIGUI-106",
        "meta_object_id": "2025-285B",
        "meta_epoch": "2025-12-18T07:46:23.983680",
        "meta_mean_motion": 14.03701688,
        "meta_eccentricity": 0.00067904,
        "meta_inclination": 50.0057,
        "meta_ra_of_asc_node": 94.5072,
        "meta_arg_of_pericenter": 294.6401,
        "meta_mean_anomaly": 65.3796,
        "meta_ephemeris_type": 0,
        "meta_classification_type": "U",
        "meta_norad_cat_id": 66916,
        "meta_element_set_no": 999,
        "meta_rev_at_epoch": 169,
        "meta_bstar": -2.0162109e-05,
        "meta_mean_motion_dot": -1.83e-06,
        "meta_mean_motion_ddot": 0,
        "tle_line1": "1 66916U 25285B   25352.32388870 -.00000183  00000+0 -20162-4 0  9994",
        "tle_line2": "2 66916  50.0057  94.5072 0006790 294.6401  65.3796 14.03701688  1692"
      },
      "geometry": {
        "type": "Point",
        "coordinates": [
          64.77420184435874,
          -29.23642053596289
        ]
      }
    },
    {
      "type": "Feature",
      "properties": {
        "norad_id": 66917,
        "name": "HULIANWANG DIGUI-107",
        "group": "last-30-days",
        "lat": -22.51380671091495,
        "lon": 72.41069328691411,
        "alt_km": 879.1586106224631,
        "timestamp": "2025-12-18T17:50:13.701741+00:00",
        "meta_object_name": "HULIANWANG DIGUI-107",
        "meta_object_id": "2025-285C",
        "meta_epoch": "2025-12-18T07:43:38.460288",
        "meta_mean_motion": 14.03661898,
        "meta_eccentricity": 0.00074679,
        "meta_inclination": 50.0022,
        "meta_ra_of_asc_node": 94.4912,
        "meta_arg_of_pericenter": 304.0473,
        "meta_mean_anomaly": 55.9721,
        "meta_ephemeris_type": 0,
        "meta_classification_type": "U",
        "meta_norad_cat_id": 66917,
        "meta_element_set_no": 999,
        "meta_rev_at_epoch": 169,
        "meta_bstar": -2.0341085e-05,
        "meta_mean_motion_dot": -1.84e-06,
        "meta_mean_motion_ddot": 0,
        "tle_line1": "1 66917U 25285C   25352.32197292 -.00000184  00000+0 -20341-4 0  9991",
        "tle_line2": "2 66917  50.0022  94.4912 0007467 304.0473  55.9721 14.03661898  1695"
      },
      "geometry": {
        "type": "Point",
        "coordinates": [
          72.41069328691411,
          -22.51380671091495
        ]
      }
    },
    {
      "type": "Feature",
      "properties": {
        "norad_id": 66918,
        "name": "HULIANWANG DIGUI-108",
        "group": "last-30-days",
        "lat": -19.333186046801046,
        "lon": 75.64140266277566,
        "alt_km": 880.0730482697318,
        "timestamp": "2025-12-18T17:50:13.701754+00:00",
        "meta_object_name": "HULIANWANG DIGUI-108",
        "meta_object_id": "2025-285D",
        "meta_epoch": "2025-12-18T07:42:22.066272",
        "meta_mean_motion": 14.03600941,
        "meta_eccentricity": 0.00065942,
        "meta_inclination": 50.0044,
        "meta_ra_of_asc_node": 94.4901,
        "meta_arg_of_pericenter": 298.608,
        "meta_mean_anomaly": 61.4161,
        "meta_ephemeris_type": 0,
        "meta_classification_type": "U",
        "meta_norad_cat_id": 66918,
        "meta_element_set_no": 999,
        "meta_rev_at_epoch": 169,
        "meta_bstar": -1.1917262e-05,
        "meta_mean_motion_dot": -1.7e-06,
        "meta_mean_motion_ddot": 0,
        "tle_line1": "1 66918U 25285D   25352.32108873 -.00000170  00000+0 -11917-4 0  9993",
        "tle_line2": "2 66918  50.0044  94.4901 0006594 298.6080  61.4161 14.03600941  1692"
      },
      "geometry": {
        "type": "Point",
        "coordinates": [
          75.64140266277566,
          -19.333186046801046
        ]
      }
    },
    {
      "type": "Feature",
      "properties": {
        "norad_id": 66919,
        "name": "HULIANWANG DIGUI-109",
        "group": "last-30-days",
        "lat": -14.705567024474869,
        "lon": 80.03667665708689,
        "alt_km": 878.113553818549,
        "timestamp": "2025-12-18T17:50:13.701764+00:00",
        "meta_object_name": "HULIANWANG DIGUI-109",
        "meta_object_id": "2025-285E",
        "meta_epoch": "2025-12-18T07:40:38.329248",
        "meta_mean_motion": 14.03724969,
        "meta_eccentricity": 0.0007883,
        "meta_inclination": 50.0068,
        "meta_ra_of_asc_node": 94.488,
        "meta_arg_of_pericenter": 311.0221,
        "meta_mean_anomaly": 49.0001,
        "meta_ephemeris_type": 0,
        "meta_classification_type": "U",
        "meta_norad_cat_id": 66919,
        "meta_element_set_no": 999,
        "meta_rev_at_epoch": 169,
        "meta_bstar": -1.9956133e-05,
        "meta_mean_motion_dot": -1.83e-06,
        "meta_mean_motion_ddot": 0,
        "tle_line1": "1 66919U 25285E   25352.31988807 -.00000183  00000+0 -19956-4 0  9991",
        "tle_line2": "2 66919  50.0068  94.4880 0007883 311.0221  49.0001 14.03724969  1696"
      },
      "geometry": {
        "type": "Point",
        "coordinates": [
          80.03667665708689,
          -14.705567024474869
        ]
      }
    }
  ]
}